{
  "type": "FeatureCollection",
  "features": [
    {
      "type": "Feature",
      "properties": {
        "norad_id": 30342,
        "name": "FENGYUN 1C DEB",
        "group": "fengyun-1c-debris",
        "lat": 63.4860503897747,
        "lon": 152.13267694764582,
        "alt_km": 862.4408278453302,
        "timestamp": "2025-12-19T06:59:44.184300+00:00",
        "meta_object_name": "FENGYUN 1C DEB",
        "meta_object_id": "1999-025ABD",
        "meta_epoch": "2025-12-18T11:50:19.277088",
        "meta_mean_motion": 13.80052207,
        "meta_eccentricity": 0.01683241,
        "meta_inclination": 100.1956,
        "meta_ra_of_asc_node": 172.4177,
        "meta_arg_of_pericenter": 107.9014,
        "meta_mean_anomaly": 315.1928,
        "meta_ephemeris_type": 0,
        "meta_classification_type": "U",
        "meta_norad_cat_id": 30342,
        "meta_element_set_no": 999,
        "meta_rev_at_epoch": 94968,
        "meta_bstar": 0.00054541958,
        "meta_mean_motion_dot": 5.81e-06,
        "meta_mean_motion_ddot": 0,
        "tle_line1": "1 30342U 99025ABD 25352.49327867  .00000581  00000+0  54542-3 0  9996",
        "tle_line2": "2 30342 100.1956 172.4177 0168324 107.9014 315.1928 13.80052207949684"
      },
      "geometry": {
        "type": "Point",
        "coordinates": [
          152.13267694764582,
          63.4860503897747
        ]
      }
    },
    {
      "type": "Feature",
      "properties": {
        "norad_id": 30344,
        "name": "FENGYUN 1C DEB",
        "group": "fengyun-1c-debris",
        "lat": 42.970856513542095,
        "lon": 67.35704156603641,
        "alt_km": 713.3522791295172,
        "timestamp": "2025-12-19T06:59:44.184310+00:00",
        "meta_object_name": "FENGYUN 1C DEB",
        "meta_object_id": "1999-025ABF",
        "meta_epoch": "2025-12-18T19:46:25.523328",
        "meta_mean_motion": 14.51863093,
        "meta_eccentricity": 0.00072258,
        "meta_inclination": 98.8204,
        "meta_ra_of_asc_node": 75.1833,
        "meta_arg_of_pericenter": 104.5412,
        "meta_mean_anomaly": 16.7437,
        "meta_ephemeris_type": 0,
        "meta_classification_type": "U",
        "meta_norad_cat_id": 30344,
        "meta_element_set_no": 999,
        "meta_rev_at_epoch": 98165,
        "meta_bstar": 0.0018019971,
        "meta_mean_motion_dot": 7.218e-05,
        "meta_mean_motion_ddot": 0,
        "tle_line1": "1 30344U 99025ABF 25352.82390652  .00007218  00000+0  18020-2 0  9991",
        "tle_line2": "2 30344  98.8204  75.1833 0007225 104.5412  16.7437 14.51863093981654"
      },
      "geometry": {
        "type": "Point",
        "coordinates": [
          67.35704156603641,
          42.970856513542095
        ]
      }
    },
    {
      "type": "Feature",
      "properties": {
        "norad_id": 30345,
        "name": "FENGYUN 1C DEB",
        "group": "fengyun-1c-debris",
        "lat": -31.1387056008665,
        "lon": -132.49396504985054,
        "alt_km": 746.3742387143284,
        "timestamp": "2025-12-19T06:59:44.184320+00:00",
        "meta_object_name": "FENGYUN 1C DEB",
        "meta_object_id": "1999-025ABG",
        "meta_epoch": "2025-12-18T03:22:01.595136",
        "meta_mean_motion": 14.41728381,
        "meta_eccentricity": 0.00177198,
        "meta_inclination": 98.9215,
        "meta_ra_of_asc_node": 51.7498,
        "meta_arg_of_pericenter": 226.8513,
        "meta_mean_anomaly": 133.1194,
        "meta_ephemeris_type": 0,
        "meta_classification_type": "U",
        "meta_norad_cat_id": 30345,
        "meta_element_set_no": 999,
        "meta_rev_at_epoch": 97851,
        "meta_bstar": 0.0015682058,
        "meta_mean_motion_dot": 5.081e-05,
        "meta_mean_motion_ddot": 0,
        "tle_line1": "1 30345U 99025ABG 25352.14029624  .00005081  00000+0  15682-2 0  9992",
        "tle_line2": "2 30345  98.9215  51.7498 0017719 226.8513 133.1194 14.41728381978518"
      },
      "geometry": {
        "type": "Point",
        "coordinates": [
          -132.49396504985054,
          -31.1387056008665
        ]
      }
    },
    {
      "type": "Feature",
      "properties": {
        "norad_id": 30346,
        "name": "FENGYUN 1C DEB",
        "group": "fengyun-1c-debris",
        "lat": 75.94875893263139,
        "lon": -51.598645011985305,
        "alt_km": 775.7232040838126,
        "timestamp": "2025-12-19T06:59:44.184331+00:00",
        "meta_object_name": "FENGYUN 1C DEB",
        "meta_object_id": "1999-025ABH",
        "meta_epoch": "2025-12-18T19:21:37.827648",
        "meta_mean_motion": 14.3395274,
        "meta_eccentricity": 0.00551139,
        "meta_inclination": 98.8089,
        "meta_ra_of_asc_node": 89.6223,
        "meta_arg_of_pericenter": 5.6643,
        "meta_mean_anomaly": 113.4681,
        "meta_ephemeris_type": 0,
        "meta_classification_type": "U",
        "meta_norad_cat_id": 30346,
        "meta_element_set_no": 999,
        "meta_rev_at_epoch": 97500,
        "meta_bstar": 0.0014033883,
        "meta_mean_motion_dot": 3.937e-05,
        "meta_mean_motion_ddot": 0,
        "tle_line1": "1 30346U 99025ABH 25352.80668782  .00003937  00000+0  14034-2 0  9998",
        "tle_line2": "2 30346  98.8089  89.6223 0055113   5.6643 113.4681 14.33952740975002"
      },
      "geometry": {
        "type": "Point",
        "coordinates": [
          -51.598645011985305,
          75.94875893263139
        ]
      }
    },
    {
      "type": "Feature",
      "properties": {
        "norad_id": 30347,
        "name": "FENGYUN 1C DEB",
        "group": "fengyun-1c-debris",
        "lat": -59.57774150334591,
        "lon": -17.981242247249813,
        "alt_km": 1002.7436837809437,
        "timestamp": "2025-12-19T06:59:44.184341+00:00",
        "meta_object_name": "FENGYUN 1C DEB",
        "meta_object_id": "1999-025ABJ",
        "meta_epoch": "2025-12-18T23:40:28.703712",
        "meta_mean_motion": 13.92771593,
        "meta_eccentricity": 0.01503355,
        "meta_inclination": 98.3766,
        "meta_ra_of_asc_node": 176.2742,
        "meta_arg_of_pericenter": 16.4035,
        "meta_mean_anomaly": 136.7948,
        "meta_ephemeris_type": 0,
        "meta_classification_type": "U",
        "meta_norad_cat_id": 30347,
        "meta_element_set_no": 999,
        "meta_rev_at_epoch": 96047,
        "meta_bstar": 0.00016673969,
        "meta_mean_motion_dot": 1.99e-06,
        "meta_mean_motion_ddot": 0,
        "tle_line1": "1 30347U 99025ABJ 25352.98644333  .00000199  00000+0  16674-3 0  9994",
        "tle_line2": "2 30347  98.3766 176.2742 0150335  16.4035 136.7948 13.92771593960474"
      },
      "geometry": {
        "type": "Point",
        "coordinates": [
          -17.981242247249813,
          -59.57774150334591
        ]
      }
    },
    {
      "type": "Feature",
      "properties": {
        "norad_id": 30348,
        "name": "FENGYUN 1C DEB",
        "group": "fengyun-1c-debris",
        "lat": 60.7348405875843,
        "lon": 72.05284539329571,
        "alt_km": 763.7219418509831,
        "timestamp": "2025-12-19T06:59:44.184352+00:00",
        "meta_object_name": "FENGYUN 1C DEB",
        "meta_object_id": "1999-025ABK",
        "meta_epoch": "2025-12-18T05:44:27.722400",
        "meta_mean_motion": 14.3515849,
        "meta_eccentricity": 0.00171168,
        "meta_inclination": 98.8637,
        "meta_ra_of_asc_node": 87.1417,
        "meta_arg_of_pericenter": 358.3935,
        "meta_mean_anomaly": 29.9021,
        "meta_ephemeris_type": 0,
        "meta_classification_type": "U",
        "meta_norad_cat_id": 30348,
        "meta_element_set_no": 999,
        "meta_rev_at_epoch": 97613,
        "meta_bstar": 0.0015567864,
        "meta_mean_motion_dot": 4.411e-05,
        "meta_mean_motion_ddot": 0,
        "tle_line1": "1 30348U 99025ABK 25352.23920975  .00004411  00000+0  15568-2 0  9993",
        "tle_line2": "2 30348  98.8637  87.1417 0017116 358.3935  29.9021 14.35158490976130"
      },
      "geometry": {
        "type": "Point",
        "coordinates": [
          72.05284539329571,
          60.7348405875843
        ]
      }
    },
    {
      "type": "Feature",
      "properties": {
        "norad_id": 30349,
        "name": "FENGYUN 1C DEB",
        "group": "fengyun-1c-debris",
        "lat": -13.052532667052047,
        "lon": 133.4421069674158,
        "alt_km": 920.7251783044612,
        "timestamp": "2025-12-19T06:59:44.184362+00:00",
        "meta_object_name": "FENGYUN 1C DEB",
        "meta_object_id": "1999-025ABL",
        "meta_epoch": "2025-12-17T20:19:32.884032",
        "meta_mean_motion": 14.11144329,
        "meta_eccentricity": 0.00891965,
        "meta_inclination": 98.5842,
        "meta_ra_of_asc_node": 314.0678,
        "meta_arg_of_pericenter": 357.9518,
        "meta_mean_anomaly": 60.9512,
        "meta_ephemeris_type": 0,
        "meta_classification_type": "U",
        "meta_norad_cat_id": 30349,
        "meta_element_set_no": 999,
        "meta_rev_at_epoch": 96303,
        "meta_bstar": 0.0017554551,
        "meta_mean_motion_dot": 3.242e-05,
        "meta_mean_motion_ddot": 0,
        "tle_line1": "1 30349U 99025ABL 25351.84690838  .00003242  00000+0  17555-2 0  9991",
        "tle_line2": "2 30349  98.5842 314.0678 0089196 357.9518  60.9512 14.11144329963031"
      },
      "geometry": {
        "type": "Point",
        "coordinates": [
          133.4421069674158,
          -13.052532667052047
        ]
      }
    }
  ]
}